NORAD_CAT_ID,OBJECT_NAME,OBJECT_TYPE,EPOCH,MEAN_MOTION,ECCENTRICITY,INCLINATION,RA_OF_ASC_NODE,ARG_OF_PERICENTER,MEAN_ANOMALY,BSTAR,MEAN_MOTION_DOT,MEAN_MOTION_DDOT,TLE_LINE0,TLE_LINE1,TLE_LINE2,SEMIMAJOR_AXIS,PERIOD,APOGEE,PERIGEE,DECAYED
56792.0,STARLINK-6046,PAYLOAD,2024-03-01 08:56:00,14.98332664,0.0003021,70.0,46.1685,270.2064,89.8749,3.1056e-05,2.78e-06,0.0,0 STARLINK-6046,1 56792U 23078AB  24061.37222826  .00000278  00000-0  31056-4 0  9990,2 56792  70.0000  46.1685 0003021 270.2064  89.8749 14.98332664 42080,6950.185,96.107,574.149,569.95,0.0
56792.0,STARLINK-6046,PAYLOAD,2024-03-02 08:58:00,14.98339591,0.0002968,70.0003,43.6435,270.4639,89.618,0.00010243,1.13e-05,0.0,0 STARLINK-6046,1 56792U 23078AB  24062.37361948  .00001130  00000-0  10243-3 0  9992,2 56792  70.0003  43.6435 0002968 270.4639  89.6180 14.98339591 42495,6950.163,96.106,574.091,569.965,0.0
56792.0,STARLINK-6046,PAYLOAD,2024-03-03 04:11:38,14.98330795,0.000275,70.0009,41.6241,272.7148,87.3696,-0.00019052,-2.365e-05,0.0,0 STARLINK-6046,1 56792U 23078AB  24063.17475244 -.00002365  00000-0 -19052-3 0  9996,2 56792  70.0009  41.6241 0002750 272.7148  87.3696 14.98330795 42611,6950.19,96.107,573.967,570.144,0.0
56792.0,STARLINK-6046,PAYLOAD,2024-03-03 09:00:03,14.98322241,0.0002811,70.001,41.1205,266.808,93.2757,-8.2447e-05,-1.076e-05,0.0,0 STARLINK-6046,1 56792U 23078AB  24063.37503614 -.00001076  00000-0 -82447-4 0  9998,2 56792  70.0010  41.1205 0002811 266.8080  93.2757 14.98322241 42380,6950.217,96.107,574.036,570.128,0.0
56792.0,STARLINK-6046,PAYLOAD,2024-03-04 02:37:30,14.98336457,0.0003235,69.9998,39.2663,273.1868,86.8921,6.9689e-06,-1e-07,0.0,0 STARLINK-6046,1 56792U 23078AB  24064.10938401 -.00000010  00000-0  69689-5 0  9996,2 56792  69.9998  39.2663 0003235 273.1868  86.8921 14.98336457 42750,6950.173,96.107,574.286,569.79,0.0
56792.0,STARLINK-6046,PAYLOAD,2024-03-04 07:25:54,14.98344036,0.000283,70.0009,38.7624,268.315,91.7685,7.0575e-05,7.5e-06,0.0,0 STARLINK-6046,1 56792U 23078AB  24064.30965620  .00000750  00000-0  70575-4 0  9996,2 56792  70.0009  38.7624 0002830 268.3150  91.7685 14.98344036 42784,6950.149,96.106,573.981,570.048,0.0
56792.0,STARLINK-6046,PAYLOAD,2024-03-04 15:26:35,14.98337762,0.0002699,70.0009,37.9203,273.1799,86.9051,-3.5881e-05,-5.21e-06,0.0,0 STARLINK-6046,1 56792U 23078AB  24064.64346140 -.00000521  00000-0 -35881-4 0  9992,2 56792  70.0009  37.9203 0002699 273.1799  86.9051 14.98337762 42831,6950.169,96.107,573.91,570.158,0.0
56792.0,STARLINK-6046,PAYLOAD,2024-03-05 02:39:32,14.9831566,0.000321,70.0001,36.7411,268.3374,91.7417,-4.6606e-05,-6.49e-06,0.0,0 STARLINK-6046,1 56792U 23078AB  24065.11079644 -.00000649  00000-0 -46606-4 0  9995,2 56792  70.0001  36.7411 0003210 268.3374  91.7417 14.98315660 42907,6950.237,96.108,574.333,569.871,0.0
56792.0,STARLINK-6046,PAYLOAD,2024-03-05 07:27:56,14.98319145,0.0003055,70.0005,36.2374,266.8247,93.2563,-2.1085e-06,-1.18e-06,0.0,0 STARLINK-6046,1 56792U 23078AB  24065.31107460 -.00000118  00000-0 -21085-5 0  9991,2 56792  70.0005  36.2374 0003055 266.8247  93.2563 14.98319145 42678,6950.226,96.108,574.215,569.968,0.0
56792.0,STARLINK-6046,PAYLOAD,2024-03-05 15:28:36,14.98327582,0.0003065,70.0008,35.3952,267.0474,93.0335,3.3323e-05,3.05e-06,0.0,0 STARLINK-6046,1 56792U 23078AB  24065.64486974  .00000305  00000-0  33323-4 0  9990,2 56792  70.0008  35.3952 0003065 267.0474  93.0335 14.98327582 42982,6950.2,96.107,574.196,569.935,0.0
56792.0,STARLINK-6046,PAYLOAD,2024-03-06 04:17:40,14.98339371,0.0002898,70.0009,34.0483,260.1914,99.8918,2.2873e-05,1.8e-06,0.0,0 STARLINK-6046,1 56792U 23078AB  24066.17894194  .00000180  00000-0  22873-4 0  9995,2 56792  70.0009  34.0483 0002898 260.1914  99.8918 14.98339371 43064,6950.164,96.106,574.043,570.015,0.0
56792.0,STARLINK-6046,PAYLOAD,2024-03-06 07:29:56,14.98341896,0.0002847,70.0009,33.7117,260.6232,99.4605,5.2456e-05,5.33e-06,0.0,0 STARLINK-6046,1 56792U 23078AB  24066.31245892  .00000533  00000-0  52456-4 0  9998,2 56792  70.0009  33.7117 0002847 260.6232  99.4605 14.98341896 42823,6950.156,96.106,574.0,570.042,0.0
56792.0,STARLINK-6046,PAYLOAD,2024-03-07 04:19:42,14.98325982,0.0003053,70.0006,31.5243,264.7654,95.3157,9.4468e-05,1.034e-05,0.0,0 STARLINK-6046,1 56792U 23078AB  24067.18034766  .00001034  00000-0  94468-4 0  9996,2 56792  70.0006  31.5243 0003053 264.7654  95.3157 14.98325982 43218,6950.205,96.107,574.192,569.948,0.0
56792.0,STARLINK-6046,PAYLOAD,2024-03-07 07:31:58,14.98327787,0.0003012,70.0009,31.1881,264.3381,95.7434,0.00010041,1.105e-05,0.0,0 STARLINK-6046,1 56792U 23078AB  24067.31386681  .00001105  00000-0  10041-3 0  9990,2 56792  70.0009  31.1881 0003012 264.3381  95.7434 14.98327787 42972,6950.2,96.107,574.158,569.971,0.0
56792.0,STARLINK-6046,PAYLOAD,2024-03-08 01:09:24,14.98350819,0.0002897,70.0014,29.335,254.4719,105.612,0.00016836,1.917e-05,0.0,0 STARLINK-6046,1 56792U 23078AB  24068.04820058  .00001917  00000-0  16836-3 0  9991,2 56792  70.0014  29.3350 0002897 254.4719 105.6120 14.98350819 43340,6950.129,96.106,574.007,569.98,0.0
56792.0,STARLINK-6046,PAYLOAD,2024-03-08 04:21:42,14.98329331,0.000276,70.0019,28.9999,265.269,94.8154,-0.00010617,-1.359e-05,0.0,0 STARLINK-6046,1 56792U 23078AB  24068.18174181 -.00001359  00000-0 -10617-3 0  9998,2 56792  70.0019  28.9999 0002760 265.2690  94.8154 14.98329331 43369,6950.195,96.107,573.978,570.142,0.0
56792.0,STARLINK-6046,PAYLOAD,2024-03-08 13:58:31,14.98327465,0.0002914,70.0016,27.9899,266.3301,93.7525,-0.00014345,-1.804e-05,0.0,0 STARLINK-6046,1 56792U 23078AB  24068.58230338 -.00001804  00000-0 -14345-3 0  9996,2 56792  70.0016  27.9899 0002914 266.3301  93.7525 14.98327465 43160,6950.201,96.107,574.091,570.04,0.0
56792.0,STARLINK-6046,PAYLOAD,2024-03-08 20:23:03,14.98322659,0.000293,70.0014,27.3168,266.6844,93.398,-6.0195e-05,-8.11e-06,0.0,0 STARLINK-6046,1 56792U 23078AB  24068.84934574 -.00000811  00000-0 -60195-4 0  9990,2 56792  70.0014  27.3168 0002930 266.6844  93.3980 14.98322659 43200,6950.216,96.107,574.117,570.044,0.0
56792.0,STARLINK-6046,PAYLOAD,2024-03-09 04:23:43,14.98325666,0.000272,70.0015,26.4754,265.3366,94.7482,-1.2536e-05,-2.42e-06,0.0,0 STARLINK-6046,1 56792U 23078AB  24069.18314279 -.00000242  00000-0 -12536-4 0  9996,2 56792  70.0015  26.4754 0002720 265.3366  94.7482 14.98325666 43511,6950.206,96.107,573.962,570.181,0.0
56792.0,STARLINK-6046,PAYLOAD,2024-03-09 14:00:31,14.98328422,0.0002842,70.0016,25.465,269.6381,90.4453,-3.3962e-05,-4.98e-06,0.0,0 STARLINK-6046,1 56792U 23078AB  24069.58370249 -.00000498  00000-0 -33962-4 0  9998,2 56792  70.0016  25.4650 0002842 269.6381  90.4453 14.98328422 43317,6950.198,96.107,574.038,570.088,0.0
56792.0,STARLINK-6046,PAYLOAD,2024-03-10 02:49:35,14.98345071,0.0002823,70.0015,24.1183,270.2591,89.8244,-0.00026967,-3.31e-05,0.0,0 STARLINK-6046,1 56792U 23078AB  24070.11777407 -.00003310  00000-0 -26967-3 0  9998,2 56792  70.0015  24.1183 0002823 270.2591  89.8244 14.98345071 43659,6950.146,96.106,573.973,570.049,0.0
56792.0,STARLINK-6046,PAYLOAD,2024-03-10 06:01:51,14.98338158,0.0002961,70.0016,23.7819,269.1178,90.9642,-0.00014847,-1.864e-05,0.0,0 STARLINK-6046,1 56792U 23078AB  24070.25129490 -.00001864  00000-0 -14847-3 0  9992,2 56792  70.0016  23.7819 0002961 269.1178  90.9642 14.98338158 43419,6950.168,96.106,574.091,569.975,0.0
56792.0,STARLINK-6046,PAYLOAD,2024-03-10 20:27:05,14.98322773,0.0002497,70.0022,22.266,268.2968,91.7905,6.7696e-05,7.15e-06,0.0,0 STARLINK-6046,1 56792U 23078AB  24070.85214385  .00000715  00000-0  67696-4 0  9999,2 56792  70.0022  22.2660 0002497 268.2968  91.7905 14.98322773 43760,6950.215,96.107,573.816,570.345,0.0
56792.0,STARLINK-6046,PAYLOAD,2024-03-10 22:03:13,14.98315945,0.0002985,70.0023,22.0973,264.8538,95.228,0.00020008,2.294e-05,0.0,0 STARLINK-6046,1 56792U 23078AB  24070.91890371  .00002294  00000-0  20008-3 0  9990,2 56792  70.0023  22.0973 0002985 264.8538  95.2280 14.98315945 43514,6950.236,96.108,574.176,570.027,0.0
56792.0,STARLINK-6046,PAYLOAD,2024-03-11 06:03:53,14.98323178,0.000263,70.0021,21.2569,265.2702,94.8157,6.8354e-05,7.23e-06,0.0,0 STARLINK-6046,1 56792U 23078AB  24071.25270511  .00000723  00000-0  68354-4 0  9998,2 56792  70.0021  21.2569 0002630 265.2702  94.8157 14.98323178 43569,6950.214,96.107,573.907,570.251,0.0
56792.0,STARLINK-6046,PAYLOAD,2024-03-11 20:29:06,14.98325121,0.0002864,70.0019,19.742,266.8144,93.2688,8.3958e-05,9.09e-06,0.0,0 STARLINK-6046,1 56792U 23078AB  24071.85354474  .00000909  00000-0  83958-4 0  9998,2 56792  70.0019  19.7420 0002864 266.8144  93.2688 14.98325121 43911,6950.208,96.107,574.064,570.082,0.0
56792.0,STARLINK-6046,PAYLOAD,2024-03-12 14:06:35,14.98304732,0.0002661,70.0017,17.8899,267.6494,92.436,0.0004827,5.667e-05,0.0,0 STARLINK-6046,1 56792U 23078AB  24072.58791206  .00005667  00000-0  48270-3 0  9990,2 56792  70.0017  17.8899 0002661 267.6494  92.4360 14.98304732 44026,6950.271,96.109,573.985,570.287,0.0
56792.0,STARLINK-6046,PAYLOAD,2024-03-13 04:31:47,14.98331203,0.0002834,70.0014,16.3756,267.0937,92.9898,8.3666e-05,9.05e-06,0.0,0 STARLINK-6046,1 56792U 23078AB  24073.18874237  .00000905  00000-0  83666-4 0  9992,2 56792  70.0014  16.3756 0002834 267.0937  92.9898 14.98331203 44111,6950.189,96.107,574.024,570.084,0.0
56792.0,STARLINK-6046,PAYLOAD,2024-03-13 06:07:55,14.98331989,0.0002823,70.0015,16.2073,267.007,93.0766,9.1283e-05,9.96e-06,0.0,0 STARLINK-6046,1 56792U 23078AB  24073.25550167  .00000996  00000-0  91283-4 0  9997,2 56792  70.0015  16.2073 0002823 267.0070  93.0766 14.98331989 43867,6950.187,96.107,574.014,570.09,0.0
56792.0,STARLINK-6046,PAYLOAD,2024-03-13 22:09:16,14.98330304,0.000273,70.0017,14.5239,267.6774,92.4072,2.359e-05,1.89e-06,0.0,0 STARLINK-6046,1 56792U 23078AB  24073.92310487  .00000189  00000-0  23590-4 0  9990,2 56792  70.0017  14.5239 0002730 267.6774  92.4072 14.98330304 43962,6950.192,96.107,573.954,570.16,0.0
